STRAND-1                
1 39090U 13009E   26043.01172251  .00000422  00000+0  15649-3 0  9993
2 39090  98.3860 226.3449 0007692 241.5446 118.4966 14.37071412679082
BRITE-AUSTRIA           
1 39091U 13009F   26043.04136681  .00000269  00000+0  10619-3 0  9995
2 39091  98.3928 225.5935 0009116 251.8920 108.1274 14.36480438679082
SBIRS GEO-2 (USA 241)   
1 39120U 13011A   26042.82211667 -.00000280  00000+0  00000+0 0  9997
2 39120   4.2170  52.3597 0002323 269.9256  65.7352  1.00271421 47277
EUTELSAT 117 WEST A     
1 39122U 13012A   26043.14570672  .00000000  00000+0  00000+0 0  9999
2 39122   0.0217  78.0711 0002922 262.0413  97.7478  1.00271794 47178
ANIK G1                 
1 39127U 13014A   26043.09598443 -.00000066  00000+0  00000+0 0  9999
2 39127   0.0473 270.5081 0002977  39.9067 118.9670  1.00272523 46992
GAOFEN-1                
1 39150U 13018A   26042.96410986 -.00000022  00000+0  41982-5 0  9991
2 39150  97.9225 117.5107 0016395 313.8013  46.1840 14.76500365689765
NEE-01 PEGASO           
1 39151U 13018B   26042.89697030  .00003485  00000+0  34168-3 0  9992
2 39151  98.0999 183.1210 0012271 213.5690 146.4751 14.92879563692009
COSMOS 2485 [GLONASS-M] 
1 39155U 13019A   26042.14867766  .00000001  00000+0  00000+0 0  9995
2 39155  65.3466  77.8350 0025596 235.1938 124.6323  2.13103182 99597
ZHONGXING-11            
1 39157U 13020A   26043.06536940 -.00000282  00000+0  00000+0 0  9990
2 39157   0.0144  31.7379 0002691 283.2194 308.5633  1.00269691 46645
PROBA-V                 
1 39159U 13021A   26042.94076409  .00000104  00000+0  63618-4 0  9999
2 39159  98.3465  27.8115 0005036 128.5607 231.6024 14.23566839663292
VNREDSAT 1              
1 39160U 13021B   26043.16111125  .00000667  00000+0  13288-3 0  9992
2 39160  97.9273 101.2576 0001481  96.6128 263.5244 14.65036298681988
EUTELSAT 7B             
1 39163U 13022A   26043.09211431  .00000056  00000+0  00000+0 0  9995
2 39163   0.0720 335.2685 0005987  10.8807 196.1389  1.00270615 46692
NAVSTAR 68 (USA 242)    
1 39166U 13023A   26042.04302418  .00000017  00000+0  00000+0 0  9996
2 39166  54.6019 274.1121 0140998  49.5458 311.7388  2.00564450 93353
WGS F5 (USA 243)        
1 39168U 13024A   26042.96451362 -.00000276  00000+0  00000+0 0  9991
2 39168   0.0111 121.3869 0000529 290.4267  24.9304  1.00271110 45912
SES-6                   
1 39172U 13026A   26043.08864193 -.00000253  00000+0  00000+0 0  9997
2 39172   0.0581 281.2470 0002033  47.2955 164.9780  1.00270121 46472
COSMOS 2486             
1 39177U 13028A   26043.22816538  .00000493  00000+0  12147-3 0  9994
2 39177  97.9985  15.5999 0012116  49.4875 310.7377 14.56127189673190
O3B FM5                 
1 39188U 13031A   26042.10912936 -.00000022  00000+0  00000+0 0  9995
2 39188   0.0930  20.1390 0003406 294.8678  44.9606  5.00116295230738
O3B FM4                 
1 39189U 13031B   26042.62800596 -.00000021  00000+0  00000+0 0  9990
2 39189   0.0580 344.7475 0004445 357.5468  17.6852  5.00115482230767
O3B FM2                 
1 39190U 13031C   26042.69372524 -.00000021  00000+0  00000+0 0  9994
2 39190   0.0590 340.2212 0002865 340.8300  38.9231  5.00116010230837
O3B PFM                 
1 39191U 13031D   26042.10816348 -.00000022  00000+0  00000+0 0  9999
2 39191   0.0578  14.5421 0004810 332.6577  12.7829  5.00116159230369
IRIS                    
1 39197U 13033A   26043.10019801  .00001674  00000+0  19907-3 0  9990
2 39197  97.9399 242.7195 0024866  11.1434 349.0326 14.85559688681806
IRNSS-1A                
1 39199U 13034A   26043.12822459  .00000074  00000+0  00000+0 0  9999
2 39199  35.4426  65.6603 0018682 192.4190 345.3646  1.00277406 46114
SJ-11-05                
1 39202U 13035A   26043.18830572  .00000303  00000+0  66117-4 0  9997
2 39202  98.2813 227.1388 0008775 267.5410  92.4787 14.64741678670932
MUOS-2                  
1 39206U 13036A   26042.79481653 -.00000005  00000+0  00000+0 0  9994
2 39206   4.7447  45.2833 0051245 182.7242  11.9834  1.00274174 45939
SHIYAN-7 (SY-7)         
1 39208U 13037A   26042.98092973  .00000841  00000+0  14170-3 0  9995
2 39208  98.0886  46.8502 0007796 175.8177 184.3097 14.72105585673784
CHUANGXIN-3 (CX-3)      
1 39209U 13037B   26042.99422298  .00001463  00000+0  22864-3 0  9994
2 39209  98.0832  49.5083 0004436 156.2389 203.9025 14.74319868673902
SHIJIAN-15 (SJ-15)      
1 39210U 13037C   26043.17350007  .00000950  00000+0  16191-3 0  9991
2 39210  98.1042  46.7143 0006182 173.2841 186.8449 14.71305968675944
ALPHASAT                
1 39215U 13038A   26043.17336517  .00000142  00000+0  00000+0 0  9998
2 39215   2.9767   2.3145 0001737 336.4112 250.7814  1.00270992 42762
INSAT-3D                
1 39216U 13038B   26042.92197517 -.00000332  00000+0  00000+0 0  9998
2 39216   1.6016  84.2256 0001525 228.1642 290.9899  1.00271358 45824
WGS F6 (USA 244)        
1 39222U 13041A   26043.19989991  .00000097  00000+0  00000+0 0  9991
2 39222   0.0116 115.8991 0000334 293.6564  29.4297  1.00272875 44808
ARIRANG-5 (KOMPSAT-5)   
1 39227U 13042A   26043.19695988  .00001530  00000+0  11354-3 0  9998
2 39227  97.6186 231.6322 0002297 184.6034 175.5172 15.04540823685062
ES'HAIL 1               
1 39233U 13044A   26043.17892006  .00000151  00000+0  00000+0 0  9995
2 39233   0.0530 342.8499 0002271 327.1486 282.1531  1.00268774 45378
GSAT-7                  
1 39234U 13044B   26043.13517194 -.00000069  00000+0  00000+0 0  9993
2 39234   0.0413  93.3581 0006867 194.8790 336.5938  1.00272512 44000
AMOS-4                  
1 39237U 13045A   26042.88938892  .00000016  00000+0  00000+0 0  9991
2 39237   0.0590 255.4575 0003192  80.6493 190.9984  1.00270538 45700
YAOGAN-17 01A           
1 39239U 13046A   26043.14529480  .00000050  00000+0  14061-3 0  9997
2 39239  63.3875  52.7450 0415084  11.2741 349.7241 13.45486301611464
YAOGAN-17 01B           
1 39240U 13046B   26043.18754896 -.00000041  00000+0  49958-4 0  9999
2 39240  63.3884  53.2302 0415176  10.8248 350.1380 13.45455661611518
YAOGAN-17 01C           
1 39241U 13046C   26043.16047569 -.00000087  00000+0  42202-5 0  9996
2 39241  63.3882  52.1083 0415989  10.9059 350.0650 13.45461193611554
GONETS-M 5              
1 39249U 13048A   26043.18383112 -.00000016  00000+0 -19046-3 0  9996
2 39249  82.4785  61.3106 0017581 123.2566 237.0201 12.42887358563352
GONETS-M 6              
1 39250U 13048B   26043.16655800 -.00000023  00000+0 -23803-3 0  9996
2 39250  82.4813  62.2096 0019545 155.4427 204.7587 12.43026234563413
GONETS-M 7              
1 39251U 13048C   26043.14905433  .00000050  00000+0  28846-3 0  9995
2 39251  82.4850  64.1903 0018407 124.6877 235.5940 12.42909321563305
HISAKI (SPRINT-A)       
1 39253U 13049A   26042.55720604  .00000093  00000+0  41123-4 0  9998
2 39253  29.7188 138.7127 0136760  78.2400 283.3479 13.55528142614364
AEHF-3 (USA 246)        
1 39256U 13050A   26043.09277775  .00000034  00000+0  00000+0 0  9998
2 39256   4.9854  68.3422 0092558 187.2376 155.8029  1.00270124 44392
FENGYUN 3C              
1 39260U 13052A   26043.23282395  .00000139  00000+0  91967-4 0  9998
2 39260  98.4848  22.9364 0015230  27.1032 333.0935 14.15720169640883
CASSIOPE                
1 39265U 13055A   26043.10491433  .00046284 -49204-6  56972-3 0  9991
2 39265  80.9146 217.6476 0323754 121.4633 241.8675 15.16608189648659
POPACS 2                
1 39269U 13055E   26041.12283779  .00016506  00000+0  29517-3 0  9999
2 39269  80.9940 289.1966 0434093 240.8971 114.8132 14.86527092644307
POPACS 3                
1 39270U 13055F   26040.93903997  .00009126  00000+0  21918-3 0  9997
2 39270  81.0043   6.8776 0564061  96.8119 269.7559 14.53161907620052
ASTRA 2E                
1 39285U 13056A   26042.69497601  .00000159  00000+0  00000+0 0  9991
2 39285   0.0689  36.3685 0002230 285.5066  98.5760  1.00275161 45155
SHIJIAN-16 (SJ-16)      
1 39358U 13057A   26043.22026497  .00001754  00000+0  17434-3 0  9999
2 39358  74.9707 233.3008 0016672 176.4301 183.7010 14.92249535667707
FM-6                    
1 39360U 13058A   26042.96086596 -.00000008  00000+0  00000+0 0  9998
2 39360   0.0271 105.6334 0002892  78.1103 187.9545  1.00268680 44813
RADUGA-1M 3             
1 39375U 13062A   26043.17336517  .00000158  00000+0  00000+0 0  9999
2 39375   5.6445  73.9401 0001038 357.4766 168.1909  1.00273822 44857
YAOGAN-19               
1 39410U 13065A   26043.21517505  .00000488  00000+0  14059-2 0  9993
2 39410 100.0986  25.2654 0009741  19.1739 340.9739 13.15578811587216
APRIZESAT 7             
1 39416U 13066A   26043.09297713  .00002287  00000+0  23351-3 0  9997
2 39416  97.7551 358.2577 0034327 266.0421  93.6873 14.91190289662583
ZACUBE-1 (TSHEPISOSAT)  
1 39417U 13066B   26043.18379499  .00007291  00000+0  58074-3 0  9990
2 39417  97.8178   4.8855 0040526 308.0228  51.7339 15.00019681661985
SKYSAT-A                
1 39418U 13066C   26043.09444815  .00004305  00000+0  25190-3 0  9992
2 39418  97.4012  96.4288 0022486  30.6782 329.5759 15.12154036669576
DUBAISAT-2              
1 39419U 13066D   26043.19699729  .00006119  00000+0  38942-3 0  9994
2 39419  97.4501  36.7587 0013176 100.7277 259.5436 15.09070107667533
OPTOS                   
1 39420U 13066E   26043.14772945  .00001615  00000+0  23801-3 0  9997
2 39420  97.6995 274.7443 0118472  54.8959 306.3287 14.71962083653126
STSAT-3                 
1 39422U 13066G   26043.16361944  .00002363  00000+0  18503-3 0  9998
2 39422  97.6073  15.2874 0014417  96.0463 264.2405 15.01901217665430
WNISAT-1                
1 39423U 13066H   26042.89190093  .00001334  00000+0  25277-3 0  9996
2 39423  97.6994 201.0904 0162426 266.5514  91.7097 14.57780520648474
APRIZESAT 8             
1 39425U 13066K   26042.75426597  .00001725  00000+0  19367-3 0  9991
2 39425  97.8078 352.1074 0045750 340.6234  19.3241 14.87335479661025
